INTELSAT 25 (IS-25)     
1 33153U 08034A   26113.08239256 -.00000278  00000+0  00000+0 0  9994
2 33153   2.5670  80.9425 0002165 274.6153 207.9060  0.99965107 65143
GALAXY 19 (G-19)        
1 33376U 08045A   26117.27787686 -.00000149  00000+0  00000+0 0  9990
2 33376   0.0193 249.1154 0003359 163.8217 165.3586  1.00272017 64397
FM-5                    
1 35493U 09034A   26117.19697571 -.00000210  00000+0  00000+0 0  9994
2 35493   0.0148 266.3053 0000608  19.2556 274.3925  1.00272405 46133
INTELSAT 14 (IS-14)     
1 36097U 09064A   26117.05552142 -.00000284  00000+0  00000+0 0  9998
2 36097   0.0129  66.3268 0002546 331.8072 151.9020  1.00272158 60090
INTELSAT 15 (IS-15)     
1 36106U 09067A   26117.01002125 -.00000196  00000+0  00000+0 0  9991
2 36106   0.0384  84.8896 0002272 311.8309 267.0457  1.00271810 40717
DIRECTV 12              
1 36131U 09075A   26117.15141734 -.00000114  00000+0  00000+0 0  9993
2 36131   0.0275  70.9499 0000256 336.5826 119.3926  1.00272158 46045
INTELSAT 16 (IS-16)     
1 36397U 10006A   26117.21885786 -.00000255  00000+0  00000+0 0  9998
2 36397   0.0157 280.7060 0002139 145.3737 151.7231  1.00270665 59147
XM-5                    
1 37185U 10053A   26117.25444561 -.00000034  00000+0  00000+0 0  9997
2 37185   0.0649 270.9565 0003548 281.1451 359.5557  1.00276059 56977
INTELSAT 17 (IS-17)     
1 37238U 10065B   26117.17822741 -.00000012  00000+0  00000+0 0  9996
2 37238   0.0187 169.8847 0002799 243.3197 292.1276  1.00271571 52730
INTELSAT 28 (IS-28)     
1 37392U 11016A   26117.05812144 -.00000234  00000+0  00000+0 0  9993
2 37392   1.6758  83.2093 0004192 317.3861 163.6671  1.00270802 52774
INTELSAT 18 (IS-18)     
1 37834U 11056A   26117.28358763  .00000000  00000+0  00000+0 0  9995
2 37834   0.0166 244.2398 0001981 149.6355 103.4907  1.00270693 53307
INTELSAT 22 (IS-22)     
1 38098U 12011A   26117.08274998 -.00000069  00000+0  00000+0 0  9991
2 38098   0.0221 106.9851 0001760 294.0083 275.9693  1.00270693  6673
INTELSAT 19 (IS-19)     
1 38356U 12030A   26117.30315203 -.00000066  00000+0  00000+0 0  9996
2 38356   0.0208 260.2897 0003112 136.4113  93.7248  1.00272609 49943
INTELSAT 20 (IS-20)     
1 38740U 12043A   26116.90669630 -.00000035  00000+0  00000+0 0  9994
2 38740   0.0202 146.6474 0002118  32.4241  70.7285  1.00271794 50238
INTELSAT 21 (IS-21)     
1 38749U 12045A   26117.27334135 -.00000295  00000+0  00000+0 0  9993
2 38749   0.0597  79.4238 0002089 329.6330 206.6030  1.00270877 50017
INTELSAT 23 (IS-23)     
1 38867U 12057A   26117.05396142 -.00000295  00000+0  00000+0 0  9999
2 38867   0.0196 265.2605 0000309 345.5296 290.6693  1.00275519 49448
FM-6                    
1 39360U 13058A   26117.04139471 -.00000028  00000+0  00000+0 0  9993
2 39360   0.0163 249.7721 0000729  84.5423 139.3071  1.00282134 45564
